{"type":"FeatureCollection", "features": [
{"type":"Feature","geometry":{"type":"Polygon","coordinates":[[[13.366928145078097,52.62534641502126],[13.362521750469979,52.62477583813948],[13.357119587680314,52.6231971662825],[13.35296596301369,52.62337132233236],[13.351071718897607,52.62386180434507],[13.343976137209935,52.62373958748764],[13.342201675781904,52.62320450807935],[13.338777563752327,52.6233408306692],[13.336683647252244,52.62264834916461],[13.329317084449551,52.62528565954474],[13.323837317224411,52.62638276327981],[13.319593627953324,52.62665871834925],[13.312986519865749,52.628184145129445],[13.303048904728948,52.627772163429256],[13.309700149034382,52.62947467193162],[13.309716377199301,52.63216047621875],[13.306191655185716,52.636482406118176],[13.307062328763108,52.63754793406406],[13.306269858071609,52.63960726333447],[13.308232240016132,52.64023654237714],[13.309407264502894,52.64272529516304],[13.300429512565348,52.65350527379031],[13.31000061883776,52.65736739329744],[13.307118073156628,52.659618565776],[13.30252496264489,52.65920422577351],[13.293690901400804,52.6593622407818],[13.287167600663887,52.65993935937105],[13.282769142163007,52.66073867694934],[13.281909447070117,52.65275341981621],[13.285132480901371,52.65262777528065],[13.283833213718612,52.64111842645331],[13.276457084856832,52.64020584871178],[13.26959885407687,52.639712696748326],[13.262152925087934,52.640685438748164],[13.262407039027153,52.63906382444126],[13.264683632893306,52.63597760197303],[13.265201890352476,52.63453434924032],[13.264234749058595,52.6268629491272],[13.26030325153735,52.627742841934335],[13.251735185732883,52.627306521233145],[13.246063663355553,52.62728556594019],[13.243301799230615,52.628190032903866],[13.230395815687588,52.62738875129367],[13.225922829850534,52.627856900861815],[13.224241840025,52.62841381469541],[13.22069264117516,52.62780764135719],[13.219760498359511,52.62443761130317],[13.216762760050928,52.620162279230605],[13.214823582278076,52.61926319879135],[13.209631273421476,52.61230090522263],[13.206882152097911,52.60913585831153],[13.20264480309324,52.6075225935438],[13.201625310604776,52.606551010602104],[13.202323655904493,52.60424902596851],[13.205807001144942,52.6014203767629],[13.20818333381448,52.599010611402846],[13.211289911964764,52.59682293674677],[13.215319793533002,52.59496680543191],[13.218114677218251,52.59319555584302],[13.219252501164869,52.59139998747459],[13.217397155141782,52.587477111478975],[13.21536166226184,52.58475830378885],[13.215431307677024,52.58352838604802],[13.218309223853007,52.58096057749638],[13.217959243089942,52.578540119510414],[13.218861600915643,52.57715778699041],[13.225079076298528,52.573145000559165],[13.225304909159624,52.571221849502386],[13.227044930313244,52.567808911052154],[13.228709096841577,52.56583251560244],[13.228327502884953,52.56309819664033],[13.233155591992652,52.559977698208364],[13.250592214915985,52.55133381610239],[13.252988150839887,52.55045255202829],[13.256945738989824,52.54967946728299],[13.270337316854356,52.549344898897864],[13.301530461543415,52.5488063524014],[13.309670201565396,52.55772201990658],[13.316939541761018,52.55955877577226],[13.323904453165781,52.56056934391362],[13.326794780325432,52.56238208249499],[13.330922933458606,52.562151279582515],[13.331792139708408,52.56165918596783],[13.337101881651227,52.56445636776952],[13.349088933719656,52.56192863444508],[13.359714673637889,52.56185484463376],[13.360097589104987,52.56047160700523],[13.364524295028266,52.56117595288045],[13.365103996263853,52.55811780458374],[13.366657266179176,52.558227611553],[13.370831230223214,52.56054113863152],[13.37714765631473,52.560661717230786],[13.378585028302599,52.566192970987835],[13.381159985472904,52.56642246213004],[13.384297765900941,52.567713444472005],[13.388400559754315,52.56766859728708],[13.388263885482463,52.569478857538044],[13.38308223084878,52.57233288719926],[13.379684701228241,52.57252424824315],[13.375145730879844,52.57563173360579],[13.371180110301948,52.577289599709],[13.365715636536788,52.58034777544061],[13.357818719103898,52.5843861053115],[13.347557123530532,52.59008319286122],[13.351757078120038,52.5907936525894],[13.36064836473123,52.59126826554848],[13.37015024955548,52.5990786652051],[13.3710239414299,52.60004605173411],[13.376211765861758,52.60773845069893],[13.376284247905591,52.6111286358228],[13.375227805122712,52.61422598389195],[13.371554259137183,52.619695237534586],[13.366928145078097,52.62534641502126]]]},"properties":{"gml_id":"s_wfs_alkis_bezirk.F176__1","Gemeinde_name":"Reinickendorf","Gemeinde_schluessel":"012","Land_name":"Berlin","Land_schluessel":"11","Schluessel_gesamt":"11000012"}},
{"type":"Feature","geometry":{"type":"Polygon","coordinates":[[[13.270337316854356,52.549344898897864],[13.270660642323298,52.547885975908045],[13.27336951814824,52.542943132839525],[13.272307067176815,52.538866693543795],[13.275321319497861,52.537605264116266],[13.276275865737189,52.53563866335673],[13.282182416666162,52.53405050581051],[13.280839013523154,52.53006678967778],[13.27821667747731,52.530196799411485],[13.274686185505326,52.52887041674023],[13.264570852522796,52.52867182873379],[13.259792336320634,52.527324458483704],[13.251213565619018,52.527085605688974],[13.247128516196469,52.52719878443923],[13.247509510954032,52.52428539368289],[13.240556214333578,52.52595602051307],[13.238371312418888,52.526124126007346],[13.22730474486596,52.52561483187794],[13.222019873085912,52.52617367857947],[13.219388345796359,52.52142051992332],[13.219490393039095,52.5181569149948],[13.220097298583745,52.51459872501284],[13.216471690476274,52.51169557591247],[13.214980503015367,52.50950914116542],[13.211861869869518,52.50934693169112],[13.208764004571158,52.5050458733774],[13.209726871858415,52.502910443544806],[13.205132445052074,52.50134838335837],[13.19907963361128,52.49987979401687],[13.19520821179165,52.499739926081304],[13.191699333704898,52.49867564215994],[13.189840461398342,52.49754546620476],[13.189534246891572,52.492933635286875],[13.187549258814068,52.49120976836237],[13.186596860222215,52.48929199563181],[13.187148651021456,52.48712833626271],[13.189811553916943,52.48433446299986],[13.190167184427608,52.48261935182886],[13.187248005415219,52.47865437035747],[13.188294870096769,52.47408397677582],[13.188170030940386,52.47183688722015],[13.19455960290631,52.470977873082724],[13.196622271095565,52.4713406489104],[13.198090738671908,52.469012783246754],[13.20063894543015,52.469044648534975],[13.201561318357161,52.46986703041993],[13.205097359116513,52.470522613748315],[13.211475021339396,52.46943902727715],[13.216539596863507,52.47012275043746],[13.223776456935962,52.46998592706865],[13.231469654701986,52.47075625615343],[13.235101503579461,52.46966105724059],[13.252631040231472,52.466746921429745],[13.259092985839024,52.46649910326689],[13.261625507815017,52.46777280453089],[13.263547821459207,52.46695168120106],[13.282916974988591,52.46919538448798],[13.289082861051687,52.470528604394296],[13.298008002552233,52.468847089007134],[13.306366702087045,52.46749039551068],[13.307476733846444,52.46788044824756],[13.311424490376176,52.46712466313976],[13.319982932785106,52.46698046080064],[13.32042839699573,52.477471018952855],[13.332868147312267,52.47741482058998],[13.337067724452417,52.47813243592526],[13.337134023079715,52.487904332057035],[13.336897162947293,52.48969131814874],[13.337306861756712,52.495985544569905],[13.338990200593738,52.499417366912866],[13.33697830497782,52.50069092504759],[13.341421041682787,52.50486765727417],[13.338637730121974,52.505919988740196],[13.335564713514701,52.50583188588379],[13.333749856908481,52.50672136199614],[13.33487206115307,52.50846042529929],[13.330043302964043,52.510075433181065],[13.333736072181718,52.51171740322307],[13.331875224090645,52.51303083809441],[13.33585375941424,52.513293389260916],[13.336136198279435,52.51437704585151],[13.33421538537805,52.516771992742456],[13.332283581462576,52.51670448230011],[13.329787305206219,52.51781311776585],[13.329094588929733,52.51910633568544],[13.329532732067474,52.52117847263263],[13.326920178386814,52.52371731968641],[13.32325227028461,52.52468732782123],[13.320010789895614,52.52406501003183],[13.318942465543165,52.5230746208265],[13.3187786360122,52.52111494453002],[13.316648801162524,52.52096317571861],[13.31335419450725,52.53026077526924],[13.316747512327149,52.53090461070472],[13.317033222475741,52.53235155600454],[13.313031890236617,52.53187840127839],[13.311412898398912,52.53561428745689],[13.328353299201387,52.53802004014765],[13.327191192314997,52.53964618187031],[13.327326130645966,52.54143052563856],[13.3262333017687,52.541874207263],[13.317935772613176,52.548237672943216],[13.301530461543415,52.5488063524014],[13.270337316854356,52.549344898897864]]]},"properties":{"gml_id":"s_wfs_alkis_bezirk.F176__2","Gemeinde_name":"Charlottenburg-Wilmersdorf","Gemeinde_schluessel":"004","Land_name":"Berlin","Land_schluessel":"11","Schluessel_gesamt":"11000004"}},
{"type":"Feature","geometry":{"type":"Polygon","coordinates":[[[13.516003202647514,52.401787711344944],[13.521797558860818,52.40057132365518],[13.526388037993879,52.39893561728585],[13.52969256885894,52.3973015469101],[13.537056990089534,52.39998736897687],[13.53820974505857,52.3999778132565],[13.535829943179369,52.395618309333194],[13.534824602512241,52.39077221583126],[13.535492206104763,52.38899093582655],[13.564159071401011,52.38813533420739],[13.574371181464555,52.3901153334136],[13.5816590900405,52.39121488724259],[13.587828039395575,52.39251525116522],[13.592695206823137,52.39381296141561],[13.594090800962755,52.39255098930175],[13.593676102203343,52.38995952016229],[13.595249227000714,52.38815966206793],[13.596119913334128,52.385984687390895],[13.599383153288791,52.38540513470967],[13.603003288532836,52.38284119695721],[13.606397790807016,52.37911787086981],[13.605469620667334,52.37797309619186],[13.606808553245388,52.37602839748503],[13.607364592044302,52.373978075992746],[13.62851373005365,52.38135584364484],[13.633223031862205,52.376243534878206],[13.642678525114707,52.3775090456645],[13.64284281588015,52.37258339283363],[13.642097780402368,52.370810317758696],[13.646830737244581,52.37015636732171],[13.647264774658145,52.36801915218379],[13.646099060083207,52.3652745240499],[13.641144148678755,52.36309667140892],[13.639085182403866,52.360981236001784],[13.638093506220772,52.35657127087176],[13.637793180739576,52.34821342252667],[13.636318500248091,52.34681665014518],[13.636824555790437,52.34522774376207],[13.638703857832665,52.343193226253916],[13.642817158163625,52.339941231203724],[13.64550795236926,52.33878504805204],[13.648848600808094,52.33833961886488],[13.651694633670722,52.33946698628657],[13.651153649771638,52.34260492343314],[13.653630646744121,52.34589641934416],[13.655576542506735,52.34721863972059],[13.656772250325673,52.349613672133394],[13.657086342311281,52.3516144056068],[13.659571176295412,52.353308203316224],[13.662023032081743,52.354214255986236],[13.663004312344535,52.35689408229191],[13.66490541162902,52.35812661610572],[13.666344580186285,52.36159245473694],[13.668477591409262,52.364209833894066],[13.669900391608035,52.36469406476697],[13.671818582163327,52.366784930545],[13.674418310933316,52.36734647942314],[13.678406085989938,52.369190855876354],[13.682151344206865,52.369639758381766],[13.68475337087271,52.36881613130378],[13.687221470640848,52.3673020516141],[13.692678652712473,52.36882185971226],[13.695090508326185,52.370702673585164],[13.699956634337397,52.37558988975007],[13.70061979654729,52.37719262141019],[13.697209406944136,52.37743772487438],[13.698809740329132,52.38112323803477],[13.695165359223708,52.38095490108936],[13.689721312045144,52.38325432352604],[13.68791480203338,52.38295343109463],[13.68612206821721,52.38399025991581],[13.686831161907046,52.385304474489594],[13.69060556432355,52.385497560266785],[13.695418073120763,52.38888152364252],[13.700150315500847,52.39114524612023],[13.701840530845832,52.3930340372382],[13.704485365190127,52.39353830747856],[13.706555573878678,52.39511951360491],[13.707941007051888,52.395125054546455],[13.713806315518907,52.39820572129101],[13.71586983604122,52.39969389255181],[13.717566620968514,52.39892664168765],[13.719842840655566,52.39906932954696],[13.722535453169904,52.398272158259324],[13.727618576623149,52.4001896120231],[13.73029131139677,52.39966858389162],[13.734269820318087,52.402134938190734],[13.734163592236262,52.40334312175044],[13.735360663665366,52.40598366752706],[13.739034675211144,52.40733562930852],[13.73727742922807,52.409559694650206],[13.734496843372883,52.41069586432826],[13.733928192442589,52.41178606169555],[13.72991153221236,52.415837850444],[13.731353355127247,52.41910019007056],[13.731065319163733,52.42047199305481],[13.737659312658364,52.42669419461604],[13.740767391165656,52.42642037963186],[13.741596051125564,52.42806080896366],[13.73894204684047,52.42885527741433],[13.740104513204017,52.43247277751207],[13.742885870582704,52.43293769921358],[13.744072209970087,52.4380705463903],[13.750505696750533,52.44148202265545],[13.756301842938397,52.44160922412866],[13.754447358203793,52.4366807847965],[13.75998803030647,52.43617026566356],[13.760937578287189,52.43787787617802],[13.755320583703714,52.43841769355735],[13.757075986089873,52.442959630221495],[13.754379427854952,52.44327957094577],[13.756442164521237,52.44617416172161],[13.753485577507709,52.447587149136794],[13.749248258349336,52.44866839378317],[13.744788140869174,52.44923636312356],[13.74330222352385,52.448937848152404],[13.73775947149011,52.449642167332165],[13.734350740635428,52.450736477083616],[13.73271571310158,52.45036008084833],[13.729080238450955,52.4507830621405],[13.720580879857662,52.456748959792456],[13.715963687143027,52.4629158046524],[13.711519188747724,52.46329158642588],[13.705700557477428,52.46555867021275],[13.701913409359909,52.46753363273821],[13.699079302718953,52.46827842301382],[13.702096452419891,52.4643655261523],[13.703356558273887,52.460044781368396],[13.705257149274336,52.459868487210315],[13.705588270482734,52.457698853620194],[13.704614540122742,52.45475972927241],[13.698347844510705,52.455259784526184],[13.69867468038569,52.456476939845736],[13.697691027139802,52.45849597755389],[13.6970796121463,52.461732989508945],[13.695433436256593,52.464184602637125],[13.689830553903542,52.4650121996453],[13.686565214772607,52.46513791870328],[13.682774434887813,52.46606878025258],[13.67864422742359,52.469235621363865],[13.67641078598977,52.47002232663153],[13.667239172802406,52.474285446728395],[13.663810321186643,52.47366017316004],[13.658363577481072,52.4750017879297],[13.655464320624237,52.47664550360329],[13.648305675119722,52.47873088053046],[13.643215409322687,52.479222775505875],[13.642567130579506,52.47870550166012],[13.636149846322823,52.47614562769995],[13.631040860375403,52.4750270084206],[13.628180710650437,52.47354405524521],[13.625341218859411,52.47369846954288],[13.624709079086658,52.46905651816271],[13.621023829849873,52.468497487982596],[13.62117177043508,52.470462557323906],[13.617123326820039,52.47120758297089],[13.615068977195536,52.46971502545196],[13.611498360414783,52.47062790042383],[13.608153082918244,52.47109069015004],[13.60837557106752,52.472854754551584],[13.603066381938131,52.472791309359856],[13.58892732725143,52.47994014846603],[13.586341515446325,52.481121584325074],[13.581874846080789,52.47997053524919],[13.57971022306602,52.48102503257133],[13.575117944451893,52.479479387042026],[13.573839253227131,52.47697003393731],[13.567780421802757,52.47455012785129],[13.560868922993114,52.47326166694626],[13.552597157025673,52.47365229103837],[13.54918804318812,52.47386418789163],[13.548478346159062,52.47331164385543],[13.542067617542239,52.47398795275199],[13.539848434375628,52.474978546906286],[13.53077195451574,52.46793765718569],[13.523667610561299,52.47386373512495],[13.52158082920795,52.475217519797226],[13.520315427442553,52.47406997247801],[13.515800800198699,52.475543463255434],[13.512968095041847,52.47566127196274],[13.507846672906346,52.474903820777854],[13.504324148720935,52.47812451804029],[13.501889516988012,52.482575917515376],[13.497854160841067,52.48328416877497],[13.494179007378488,52.483120810947376],[13.492741382319224,52.485817168637624],[13.490709081950314,52.48744368857378],[13.488503832909963,52.48783601524655],[13.485946126212541,52.487402586697605],[13.482955978077154,52.486046320231374],[13.482055731356041,52.48744347674734],[13.478074416375302,52.48772392085046],[13.477685594891705,52.48878308701664],[13.473787271133551,52.4910336618486],[13.471018876164464,52.49148723276804],[13.463199658729648,52.49421548383725],[13.463933836848033,52.49510720105357],[13.459511913213802,52.49653592251411],[13.455070613879842,52.497421114110196],[13.450907942016741,52.497108018464225],[13.447849502019748,52.49482150015324],[13.444976230601464,52.49442274988909],[13.440816288217269,52.49120256741554],[13.439657172942823,52.48990870998564],[13.444444275465612,52.48745753865312],[13.446763497374807,52.48895538145174],[13.456066896847625,52.48425408877071],[13.458134819344489,52.48581981691605],[13.470573282922219,52.476906292872364],[13.46960715422561,52.47399417249883],[13.47012875464772,52.47292851175491],[13.475039495833629,52.46812537381509],[13.478339123924979,52.46523093293935],[13.47854931573127,52.46398125417278],[13.475797990018275,52.46091315963852],[13.47496972210386,52.45876447725032],[13.457338810101604,52.45923633265921],[13.461406458842376,52.452909935631894],[13.463496798645016,52.45057065731696],[13.466141590661888,52.44882943039807],[13.494441485759083,52.435080591934764],[13.50714652820665,52.42907297000562],[13.51139693048993,52.42771257010007],[13.51440572828022,52.42716377368174],[13.519995682885423,52.42671701079385],[13.520410520885543,52.42604905047676],[13.518437754100876,52.42290965713587],[13.522123236221539,52.41843186097991],[13.52296083247295,52.41545037532315],[13.522260860861302,52.41443013051053],[13.524063305474222,52.41359235375458],[13.52224267178959,52.408322219132536],[13.520706654444131,52.406293280960575],[13.516651705101957,52.40333394238974],[13.516003202647514,52.401787711344944]]]},"properties":{"gml_id":"s_wfs_alkis_bezirk.F176__3","Gemeinde_name":"Treptow-Köpenick","Gemeinde_schluessel":"009","Land_name":"Berlin","Land_schluessel":"11","Schluessel_gesamt":"11000009"}},
{"type":"Feature","geometry":{"type":"Polygon","coordinates":[[[13.388400559754315,52.56766859728708],[13.393390264524138,52.5644045118048],[13.395905160332646,52.56182160220538],[13.39709761751374,52.55826790790385],[13.398067362534048,52.55280594393734],[13.400303697326638,52.54664552481055],[13.399206481877348,52.546530413294484],[13.400245561519036,52.54337638143195],[13.402030936160005,52.540124543875045],[13.404704551635373,52.54018771114882],[13.407486162784648,52.53468979585039],[13.40558573781651,52.52966497959654],[13.411313721791247,52.52862115483801],[13.415431658813207,52.527463060497084],[13.419753208818554,52.52554559739683],[13.423642107832306,52.5279149667068],[13.437481555232216,52.52954802023927],[13.438748232659188,52.528777835477904],[13.442277413439106,52.531025593025575],[13.447168281855445,52.526408396824635],[13.452182818460436,52.52779576788639],[13.455799803194584,52.522552293566],[13.45529014391105,52.52127227267394],[13.462695067516114,52.51992757256359],[13.47210726619803,52.52069431861965],[13.470298635691092,52.52237922212098],[13.466022516998185,52.524061664874395],[13.462756112244515,52.52450404543586],[13.458179420047788,52.526398984884594],[13.456331998981765,52.52839484487891],[13.460674496678271,52.52935789897405],[13.463389440541176,52.532633739128336],[13.468742672825373,52.534712265206124],[13.466384159255854,52.53665687208946],[13.469840571563248,52.54045833240522],[13.46701747704771,52.54807100372056],[13.469928927577953,52.547741871437594],[13.479645442271133,52.54754707068898],[13.480081860368035,52.549470065465336],[13.482281567134423,52.54968183202365],[13.486119860730186,52.552397497147496],[13.494429764964002,52.55078465402036],[13.495673626567381,52.553865283732925],[13.494906983358922,52.5560818327562],[13.491301093511298,52.55978514134592],[13.489972801223848,52.56048149023581],[13.485397820586856,52.56155054077894],[13.486068843286679,52.56415316452273],[13.483673268699075,52.56442665826556],[13.483590181925013,52.56611933806449],[13.48758849506842,52.56921866285721],[13.482601034572768,52.57163500258047],[13.482027042925507,52.57249435864826],[13.479459407440617,52.57269405839094],[13.47999040469739,52.577694873591724],[13.479730869338498,52.581167188200155],[13.480477023940479,52.58353337798099],[13.483565823563016,52.584076691565784],[13.485365409735971,52.58723134838213],[13.48896121584231,52.590050245856986],[13.50517610446881,52.59646285604879],[13.49897350532754,52.60516210623847],[13.496661617590243,52.60502723840428],[13.498508983211847,52.61074347373355],[13.503514984386587,52.61916744984718],[13.505458268667113,52.61997476200203],[13.50585469924318,52.625751924173045],[13.511391899495084,52.627787422973164],[13.517816471310576,52.62956530104784],[13.518440142863598,52.63162087944463],[13.521718849166124,52.638660266012906],[13.522439809690432,52.64076142907967],[13.523021983682014,52.64503466905333],[13.520391170099726,52.64487697026369],[13.519266079190484,52.64694601003011],[13.51282787452338,52.645399462309356],[13.504722841987192,52.64956370315002],[13.50314302936833,52.64997083432509],[13.49075954785213,52.65479671597412],[13.485359316853266,52.659425587913496],[13.488424199077786,52.67078667967139],[13.485218702077994,52.669640289702556],[13.477974564122572,52.66767808971964],[13.474531913133868,52.66822195379881],[13.476466385680546,52.671358106109835],[13.477273246383964,52.6739007800604],[13.475520173983673,52.6750230897532],[13.465928018710235,52.66711841706355],[13.459553728300762,52.66897514709914],[13.45550608839144,52.66574873612605],[13.45078570288789,52.66266738284661],[13.453945110026147,52.66184985454982],[13.46238310369884,52.65754023032615],[13.473512918109947,52.65653123086525],[13.474062794122316,52.65433253006457],[13.469966707036086,52.65186292511831],[13.467074928551636,52.651653444432476],[13.46305696796755,52.64992410139245],[13.46212089474256,52.64885034609719],[13.459732605599267,52.64808143578244],[13.452084512812474,52.64869941660909],[13.452097803177166,52.64967166958727],[13.44771676069309,52.65003857457225],[13.442772768340419,52.64912426008066],[13.440821315868671,52.6492630733278],[13.439790461216099,52.64526691821036],[13.43400913152781,52.64428278958222],[13.433389852688226,52.641474453418034],[13.434261089684515,52.63795384842032],[13.43272251482249,52.63737783173772],[13.427630518808732,52.63751173282484],[13.424378950899012,52.63557487169459],[13.416550012222292,52.63943380855072],[13.412292294307163,52.643481951831056],[13.40788456207366,52.64268562675024],[13.406590405053658,52.643846024761956],[13.403892949534647,52.644862367048724],[13.397905863583972,52.64811458684619],[13.394554048589258,52.64755515962696],[13.392091449695704,52.64482096872177],[13.392260339438838,52.64380871831174],[13.389686964829963,52.64122519549973],[13.39036819331228,52.63981238808503],[13.389214736230821,52.637676202860995],[13.384142951487647,52.63620135544019],[13.382859100228202,52.635217302668124],[13.378709127786557,52.634352552954475],[13.376451795308448,52.632118281332545],[13.377023206903946,52.629337832418656],[13.37457248254561,52.627766839754614],[13.371483504009253,52.62716031908716],[13.366928145078097,52.62534641502126],[13.371554259137183,52.619695237534586],[13.375227805122712,52.61422598389195],[13.376284247905591,52.6111286358228],[13.376211765861758,52.60773845069893],[13.3710239414299,52.60004605173411],[13.37015024955548,52.5990786652051],[13.36064836473123,52.59126826554848],[13.351757078120038,52.5907936525894],[13.347557123530532,52.59008319286122],[13.357818719103898,52.5843861053115],[13.365715636536788,52.58034777544061],[13.371180110301948,52.577289599709],[13.375145730879844,52.57563173360579],[13.379684701228241,52.57252424824315],[13.38308223084878,52.57233288719926],[13.388263885482463,52.569478857538044],[13.388400559754315,52.56766859728708]]]},"properties":{"gml_id":"s_wfs_alkis_bezirk.F176__4","Gemeinde_name":"Pankow","Gemeinde_schluessel":"003","Land_name":"Berlin","Land_schluessel":"11","Schluessel_gesamt":"11000003"}},
{"type":"Feature","geometry":{"type":"Polygon","coordinates":[[[13.439657172942823,52.48990870998564],[13.422750587317752,52.49536715555374],[13.420789032243546,52.49547582654317],[13.425411005115498,52.48808522208677],[13.423681544864067,52.48635828788528],[13.420842987388836,52.48716818967181],[13.407885995593105,52.48886083081797],[13.408529432279972,52.48714199204255],[13.406748392972082,52.48512623478809],[13.406395248988474,52.48277046362933],[13.406063269031023,52.480985920501595],[13.406622925219452,52.47823356485415],[13.410884821869065,52.477723694784025],[13.413488212027671,52.47870849042936],[13.415780402142472,52.470310311517686],[13.416879620678971,52.465396419364595],[13.421542123073218,52.46583855921733],[13.42197195111338,52.46151620165862],[13.420607843834517,52.459368101508],[13.424371506999396,52.457997580841116],[13.426569666696135,52.45669987344581],[13.42119658222265,52.456752224154165],[13.417682665071558,52.452201705100784],[13.416836851337383,52.452239476259315],[13.414767480808772,52.44701122673481],[13.413985173579974,52.44594544449279],[13.410568183210339,52.4374529734217],[13.410379599516228,52.43614444307643],[13.406866850104239,52.43013928184788],[13.406094965197855,52.42711463534853],[13.402601245985489,52.422160902895754],[13.405468149342852,52.4217637841377],[13.404815220405387,52.42000306672532],[13.400121491825516,52.41877349649124],[13.399497171455314,52.41801930546172],[13.40250484212593,52.41271050275601],[13.4084696713451,52.4134401441873],[13.4114862608022,52.41313896348777],[13.419583542146638,52.41018404183319],[13.431932071811975,52.41251497366893],[13.44705551210068,52.41668510711514],[13.454685387604728,52.41945428463642],[13.459460210740769,52.42056982508123],[13.463547675813816,52.42108040630302],[13.46801799981044,52.42003280664772],[13.471010631699658,52.41406209817578],[13.47572999403586,52.406373885246516],[13.478952001151711,52.39998049647987],[13.479762012406383,52.395946039691964],[13.483549135057517,52.39693760961474],[13.490559325099452,52.39775810625198],[13.495029351494317,52.398568563618184],[13.505745472445895,52.39990608650924],[13.511690129960325,52.400806921823786],[13.516003202647514,52.401787711344944],[13.516651705101957,52.40333394238974],[13.520706654444131,52.406293280960575],[13.52224267178959,52.408322219132536],[13.524063305474222,52.41359235375458],[13.522260860861302,52.41443013051053],[13.52296083247295,52.41545037532315],[13.522123236221539,52.41843186097991],[13.518437754100876,52.42290965713587],[13.520410520885543,52.42604905047676],[13.519995682885423,52.42671701079385],[13.51440572828022,52.42716377368174],[13.51139693048993,52.42771257010007],[13.50714652820665,52.42907297000562],[13.494441485759083,52.435080591934764],[13.466141590661888,52.44882943039807],[13.463496798645016,52.45057065731696],[13.461406458842376,52.452909935631894],[13.457338810101604,52.45923633265921],[13.47496972210386,52.45876447725032],[13.475797990018275,52.46091315963852],[13.47854931573127,52.46398125417278],[13.478339123924979,52.46523093293935],[13.475039495833629,52.46812537381509],[13.47012875464772,52.47292851175491],[13.46960715422561,52.47399417249883],[13.470573282922219,52.476906292872364],[13.458134819344489,52.48581981691605],[13.456066896847625,52.48425408877071],[13.446763497374807,52.48895538145174],[13.444444275465612,52.48745753865312],[13.439657172942823,52.48990870998564]]]},"properties":{"gml_id":"s_wfs_alkis_bezirk.F176__5","Gemeinde_name":"Neukölln","Gemeinde_schluessel":"008","Land_name":"Berlin","Land_schluessel":"11","Schluessel_gesamt":"11000008"}},
{"type":"Feature","geometry":{"type":"Polygon","coordinates":[[[13.552597157025673,52.47365229103837],[13.550856972500222,52.47701547293087],[13.548451371519413,52.47977762798891],[13.54791588015797,52.48251371355125],[13.54989270685196,52.48445026824277],[13.549966925259865,52.48578131816446],[13.546253363492948,52.49176586665046],[13.54483772666227,52.493215803749514],[13.544084972496524,52.49620791009625],[13.542147359921632,52.498250331406034],[13.539493536160903,52.49854449351158],[13.53519830562762,52.50555045541615],[13.536300634521286,52.506406944046965],[13.536212972127178,52.50999327982832],[13.537573553488434,52.511786972862716],[13.533984904176277,52.513622956049524],[13.519303074188882,52.513896237695],[13.518740985714135,52.51444087820394],[13.519436554872485,52.52384366816823],[13.518615662170161,52.53289469459408],[13.516883749953994,52.535547568672825],[13.521789432233712,52.536039499003856],[13.527843590101156,52.537803218208005],[13.531593184438067,52.53859996288655],[13.53189782209461,52.53952769173154],[13.527483927788488,52.551523444270536],[13.525355650445725,52.55531839924316],[13.533950603932526,52.560387542853725],[13.541192644102246,52.56601455630435],[13.544617732912508,52.5669345691243],[13.545733632326236,52.5677907689607],[13.560609743265038,52.57124524693848],[13.566464568086781,52.5729299366894],[13.567704769470474,52.574509087087144],[13.56452295004749,52.578197280057246],[13.561855544071557,52.580390765723656],[13.555472111163244,52.5841501677257],[13.546986892495374,52.58764324922548],[13.541668088441766,52.58914606883881],[13.52769351744316,52.59223452563557],[13.522878835331362,52.59274843203963],[13.508118638231274,52.592137821093374],[13.50517610446881,52.59646285604879],[13.48896121584231,52.590050245856986],[13.485365409735971,52.58723134838213],[13.483565823563016,52.584076691565784],[13.480477023940479,52.58353337798099],[13.479730869338498,52.581167188200155],[13.47999040469739,52.577694873591724],[13.479459407440617,52.57269405839094],[13.482027042925507,52.57249435864826],[13.482601034572768,52.57163500258047],[13.48758849506842,52.56921866285721],[13.483590181925013,52.56611933806449],[13.483673268699075,52.56442665826556],[13.486068843286679,52.56415316452273],[13.485397820586856,52.56155054077894],[13.489972801223848,52.56048149023581],[13.491301093511298,52.55978514134592],[13.494906983358922,52.5560818327562],[13.495673626567381,52.553865283732925],[13.494429764964002,52.55078465402036],[13.486119860730186,52.552397497147496],[13.482281567134423,52.54968183202365],[13.480081860368035,52.549470065465336],[13.479645442271133,52.54754707068898],[13.469928927577953,52.547741871437594],[13.46701747704771,52.54807100372056],[13.469840571563248,52.54045833240522],[13.466384159255854,52.53665687208946],[13.468742672825373,52.534712265206124],[13.463389440541176,52.532633739128336],[13.460674496678271,52.52935789897405],[13.456331998981765,52.52839484487891],[13.458179420047788,52.526398984884594],[13.462756112244515,52.52450404543586],[13.466022516998185,52.524061664874395],[13.470298635691092,52.52237922212098],[13.47210726619803,52.52069431861965],[13.474196624642655,52.51911651213366],[13.47671358777874,52.51504566848401],[13.475437732670649,52.51343320959859],[13.47626648363358,52.51044080209329],[13.471749101665628,52.50573557586633],[13.470206937595972,52.5037427572771],[13.468572694060816,52.499651704717],[13.473080453285553,52.4989906598575],[13.484145436082873,52.49165805584269],[13.488462082405402,52.489888247601996],[13.49145351470173,52.48826564808013],[13.490709081950314,52.48744368857378],[13.492741382319224,52.485817168637624],[13.494179007378488,52.483120810947376],[13.497854160841067,52.48328416877497],[13.501889516988012,52.482575917515376],[13.504324148720935,52.47812451804029],[13.507846672906346,52.474903820777854],[13.512968095041847,52.47566127196274],[13.515800800198699,52.475543463255434],[13.520315427442553,52.47406997247801],[13.52158082920795,52.475217519797226],[13.523667610561299,52.47386373512495],[13.53077195451574,52.46793765718569],[13.539848434375628,52.474978546906286],[13.542067617542239,52.47398795275199],[13.548478346159062,52.47331164385543],[13.54918804318812,52.47386418789163],[13.552597157025673,52.47365229103837]]]},"properties":{"gml_id":"s_wfs_alkis_bezirk.F176__6","Gemeinde_name":"Lichtenberg","Gemeinde_schluessel":"011","Land_name":"Berlin","Land_schluessel":"11","Schluessel_gesamt":"11000011"}},
{"type":"Feature","geometry":{"type":"Polygon","coordinates":[[[13.611498360414783,52.47062790042383],[13.616486409454188,52.47483041173991],[13.613550552570553,52.475618623953764],[13.614892877574793,52.480762337574824],[13.629717744230218,52.49303707942928],[13.62400603577303,52.49419820226197],[13.626766481377754,52.49907090253595],[13.628090678589007,52.503404995235805],[13.629513034536231,52.50672002353133],[13.632132096587084,52.510424931816345],[13.635780429696965,52.51421591278497],[13.642458747833857,52.518550220919025],[13.647009176933487,52.52064949786547],[13.654775917367388,52.52381950283364],[13.65850154491123,52.52594502343565],[13.656911012773955,52.52983700592546],[13.64853670606422,52.52964063562884],[13.643682292715544,52.529889431860674],[13.64063091422705,52.530421886403424],[13.631559150947972,52.530572121979375],[13.62568842215008,52.53018353654691],[13.624811167325511,52.5335845604164],[13.625743922161206,52.53403913623774],[13.624822206512782,52.538105474341606],[13.627538937281946,52.53748529180802],[13.628858116769687,52.53797739071671],[13.633945714495992,52.53765270797503],[13.637648969720638,52.540921332899345],[13.63737306968684,52.5422541881607],[13.634399216547095,52.542824734560774],[13.618713532508991,52.544214226920374],[13.58741167603916,52.54945238306244],[13.586387190864773,52.549952000553574],[13.587770841280532,52.5533281173124],[13.587600213318968,52.55562359553343],[13.586478633254362,52.55769109692337],[13.584431372155318,52.5598569223687],[13.583933367993804,52.5637616371229],[13.58316813077584,52.56521301132677],[13.583346263722786,52.56774700806483],[13.58154212565013,52.57110606527134],[13.57788734540109,52.571126326045665],[13.5769681707948,52.57290179053674],[13.574692316739315,52.57383816598001],[13.571408505328916,52.57323600680805],[13.569083302532256,52.57336640864877],[13.567704769470474,52.574509087087144],[13.566464568086781,52.5729299366894],[13.560609743265038,52.57124524693848],[13.545733632326236,52.5677907689607],[13.544617732912508,52.5669345691243],[13.541192644102246,52.56601455630435],[13.533950603932526,52.560387542853725],[13.525355650445725,52.55531839924316],[13.527483927788488,52.551523444270536],[13.53189782209461,52.53952769173154],[13.531593184438067,52.53859996288655],[13.527843590101156,52.537803218208005],[13.521789432233712,52.536039499003856],[13.516883749953994,52.535547568672825],[13.518615662170161,52.53289469459408],[13.519436554872485,52.52384366816823],[13.518740985714135,52.51444087820394],[13.519303074188882,52.513896237695],[13.533984904176277,52.513622956049524],[13.537573553488434,52.511786972862716],[13.536212972127178,52.50999327982832],[13.536300634521286,52.506406944046965],[13.53519830562762,52.50555045541615],[13.539493536160903,52.49854449351158],[13.542147359921632,52.498250331406034],[13.544084972496524,52.49620791009625],[13.54483772666227,52.493215803749514],[13.546253363492948,52.49176586665046],[13.549966925259865,52.48578131816446],[13.54989270685196,52.48445026824277],[13.54791588015797,52.48251371355125],[13.548451371519413,52.47977762798891],[13.550856972500222,52.47701547293087],[13.552597157025673,52.47365229103837],[13.560868922993114,52.47326166694626],[13.567780421802757,52.47455012785129],[13.573839253227131,52.47697003393731],[13.575117944451893,52.479479387042026],[13.57971022306602,52.48102503257133],[13.581874846080789,52.47997053524919],[13.586341515446325,52.481121584325074],[13.58892732725143,52.47994014846603],[13.603066381938131,52.472791309359856],[13.60837557106752,52.472854754551584],[13.608153082918244,52.47109069015004],[13.611498360414783,52.47062790042383]]]},"properties":{"gml_id":"s_wfs_alkis_bezirk.F176__7","Gemeinde_name":"Marzahn-Hellersdorf","Gemeinde_schluessel":"010","Land_name":"Berlin","Land_schluessel":"11","Schluessel_gesamt":"11000010"}},
{"type":"Feature","geometry":{"type":"Polygon","coordinates":[[[13.217397155141782,52.587477111478975],[13.211238062213544,52.58822665993255],[13.207339977476122,52.58837468147962],[13.206710537824101,52.58659768471857],[13.20034728225125,52.58876825958175],[13.190859180168472,52.59047313864142],[13.18562658979829,52.59255367173677],[13.18447333865918,52.593377312420365],[13.17833822410625,52.594880158951554],[13.173667921873905,52.595328357650054],[13.171970433646731,52.59628944617409],[13.167896738817971,52.597010790466115],[13.164529789821064,52.598795432496594],[13.157057022998304,52.597625593979664],[13.153889454238954,52.59571303533017],[13.149097153142046,52.59177045128681],[13.1433400089819,52.58965679613039],[13.137904603181843,52.58870186048883],[13.135477878529834,52.58736554986342],[13.13266568599939,52.58692085522012],[13.128964341087757,52.58730307426394],[13.129345637648841,52.58593065045254],[13.127964670136384,52.583127754527034],[13.130260439159974,52.5830399808587],[13.131678333697051,52.58022805098241],[13.132608584814946,52.579597277470484],[13.137518169510505,52.58053050089546],[13.139156839620203,52.58038857242256],[13.14961044885669,52.5833611226747],[13.151240158780835,52.58221203307868],[13.15315845758578,52.578945290686995],[13.153546583104644,52.573255818857305],[13.152389689594619,52.57046200081537],[13.149867399252901,52.56676206457596],[13.147517385244457,52.56440720585983],[13.147141169901184,52.561451400197335],[13.146021267006978,52.56086299619286],[13.146855382027663,52.558618651149374],[13.147226247786133,52.55493623204051],[13.145852809708934,52.55293138894827],[13.144222722631653,52.55211567330363],[13.136329150156994,52.55270661509317],[13.134448352176888,52.55335093111939],[13.130471347688761,52.55597466868395],[13.124964537531024,52.54379214581049],[13.125605432949696,52.543541332609216],[13.12310350759671,52.536631498443036],[13.121707199269366,52.53487179352724],[13.11924823749854,52.529381423017284],[13.11832748294058,52.52074769971506],[13.117382311523144,52.517060658515135],[13.12699780005379,52.51754729933738],[13.13743266810365,52.51884676923556],[13.141465181728776,52.51961112222661],[13.144354314652235,52.51919310708195],[13.145630606845504,52.517465965269245],[13.147500908227,52.51719505935834],[13.15738030099599,52.513173592867886],[13.168824093828214,52.5092268210547],[13.158586197676673,52.502591224193424],[13.149590399102811,52.49631483522193],[13.128333530375837,52.479820531351855],[13.126276678589015,52.478656909968585],[13.117693274521233,52.47732029886883],[13.117234527471606,52.47327988667643],[13.116206096175748,52.4716799654498],[13.113787882436915,52.46979964069718],[13.113954206515512,52.46861906692355],[13.111855235789212,52.46744662049625],[13.110556535086861,52.465657465724696],[13.111428667060714,52.463727686010536],[13.110502690607762,52.45999695616459],[13.11240945352747,52.45899489565735],[13.112674191972589,52.45769425557365],[13.112029704916791,52.45441177599761],[13.109296343456721,52.45063549643946],[13.115364730019133,52.44565204208883],[13.11901111869277,52.44400922766981],[13.119930627167596,52.44152113488427],[13.123121136605228,52.4396149930656],[13.124119554849,52.440676048815085],[13.128045923342828,52.4409620166603],[13.133271636191848,52.442087493061386],[13.148520879934825,52.44337438684671],[13.15451641014181,52.44659790903364],[13.161726765482594,52.452134766818475],[13.170850108368175,52.4561160345435],[13.177413259441355,52.45591675575878],[13.181215499963184,52.459624862416646],[13.185305406094827,52.46257904584486],[13.188170030940386,52.47183688722015],[13.188294870096769,52.47408397677582],[13.187248005415219,52.47865437035747],[13.190167184427608,52.48261935182886],[13.189811553916943,52.48433446299986],[13.187148651021456,52.48712833626271],[13.186596860222215,52.48929199563181],[13.187549258814068,52.49120976836237],[13.189534246891572,52.492933635286875],[13.189840461398342,52.49754546620476],[13.191699333704898,52.49867564215994],[13.19520821179165,52.499739926081304],[13.19907963361128,52.49987979401687],[13.205132445052074,52.50134838335837],[13.209726871858415,52.502910443544806],[13.208764004571158,52.5050458733774],[13.211861869869518,52.50934693169112],[13.214980503015367,52.50950914116542],[13.216471690476274,52.51169557591247],[13.220097298583745,52.51459872501284],[13.219490393039095,52.5181569149948],[13.219388345796359,52.52142051992332],[13.222019873085912,52.52617367857947],[13.22730474486596,52.52561483187794],[13.238371312418888,52.526124126007346],[13.240556214333578,52.52595602051307],[13.247509510954032,52.52428539368289],[13.247128516196469,52.52719878443923],[13.251213565619018,52.527085605688974],[13.259792336320634,52.527324458483704],[13.264570852522796,52.52867182873379],[13.274686185505326,52.52887041674023],[13.27821667747731,52.530196799411485],[13.280839013523154,52.53006678967778],[13.282182416666162,52.53405050581051],[13.276275865737189,52.53563866335673],[13.275321319497861,52.537605264116266],[13.272307067176815,52.538866693543795],[13.27336951814824,52.542943132839525],[13.270660642323298,52.547885975908045],[13.270337316854356,52.549344898897864],[13.256945738989824,52.54967946728299],[13.252988150839887,52.55045255202829],[13.250592214915985,52.55133381610239],[13.233155591992652,52.559977698208364],[13.228327502884953,52.56309819664033],[13.228709096841577,52.56583251560244],[13.227044930313244,52.567808911052154],[13.225304909159624,52.571221849502386],[13.225079076298528,52.573145000559165],[13.218861600915643,52.57715778699041],[13.217959243089942,52.578540119510414],[13.218309223853007,52.58096057749638],[13.215431307677024,52.58352838604802],[13.21536166226184,52.58475830378885],[13.217397155141782,52.587477111478975]]]},"properties":{"gml_id":"s_wfs_alkis_bezirk.F176__8","Gemeinde_name":"Spandau","Gemeinde_schluessel":"005","Land_name":"Berlin","Land_schluessel":"11","Schluessel_gesamt":"11000005"}},
{"type":"Feature","geometry":{"type":"Polygon","coordinates":[[[13.188170030940386,52.47183688722015],[13.185305406094827,52.46257904584486],[13.181215499963184,52.459624862416646],[13.177413259441355,52.45591675575878],[13.170850108368175,52.4561160345435],[13.161726765482594,52.452134766818475],[13.15451641014181,52.44659790903364],[13.148520879934825,52.44337438684671],[13.133271636191848,52.442087493061386],[13.128045923342828,52.4409620166603],[13.124119554849,52.440676048815085],[13.123121136605228,52.4396149930656],[13.122142074976956,52.43787777654275],[13.117218063090336,52.436164469927],[13.11393054964188,52.4329662529096],[13.112073816971199,52.432310247405745],[13.112783446809486,52.429195837543],[13.105409499149873,52.425283072783905],[13.104567821987047,52.42398257242375],[13.099975622336755,52.42544772151401],[13.098400503331925,52.424888906030816],[13.09772366968539,52.423465970250255],[13.095839407614072,52.4219738088226],[13.088347614730992,52.41963123728769],[13.09076788091333,52.41156042864521],[13.097392095639622,52.409419966263705],[13.098853111062828,52.411118996042774],[13.096450344804113,52.41308891090623],[13.100312259517375,52.41378462609276],[13.10100284176739,52.41053893419344],[13.105914541935295,52.40954868300605],[13.107081815006541,52.40986986880006],[13.107109071070125,52.41318008795035],[13.109624098471594,52.41294112270433],[13.110136893376326,52.411286007303424],[13.111797480176664,52.4104799631407],[13.108325296210735,52.40725559388733],[13.111102798445485,52.40529784185986],[13.111819277482635,52.40398547754142],[13.118464389287297,52.401281171336755],[13.122003042959216,52.39854637895243],[13.124781331687204,52.3968694083811],[13.126922571438714,52.39657131480678],[13.13252311674031,52.39866325801115],[13.134956528356762,52.39859647417709],[13.135711960905054,52.396175249550616],[13.138229171288188,52.39570279001087],[13.131745704669028,52.39179940388121],[13.127293865558979,52.39160839936773],[13.126734015246598,52.389583640308274],[13.130753062046361,52.38737894821024],[13.133180826309536,52.38730458053088],[13.13287421216649,52.38874339721386],[13.130373649893185,52.39036618918774],[13.134707613421556,52.39356340170783],[13.14181852891176,52.39709964288627],[13.14573896349909,52.39550337473572],[13.153290497315817,52.39483999132768],[13.158869192945975,52.39393898937846],[13.168768759697219,52.394395545135794],[13.171757460335348,52.39564232040629],[13.17116572570664,52.39782671746636],[13.168740311741416,52.39735799041584],[13.157795564607472,52.39635572774106],[13.159388800399467,52.399906526669405],[13.159351114412544,52.40285864890713],[13.19667269765576,52.41531457359591],[13.204525650344133,52.41583471270294],[13.209713084507547,52.416798510199754],[13.218045431245045,52.41930535169182],[13.225060381061798,52.421078114312735],[13.233141456222551,52.42034329979717],[13.237621369093253,52.42079659735757],[13.245951999570819,52.4211751102341],[13.247145871376452,52.41889958288537],[13.249035775956475,52.41176358167302],[13.24897148866297,52.40883028175644],[13.249780640615773,52.4049819591324],[13.253309261898083,52.40603535017293],[13.257134471996295,52.40640064384239],[13.261366332176921,52.405858773737734],[13.266965401442302,52.40428250391593],[13.271997658425638,52.40431649378026],[13.275816851184107,52.405197900988824],[13.28035142103444,52.40736492041975],[13.293225256535349,52.41456113363865],[13.295932819668892,52.4145043217149],[13.303788631347464,52.407282546782156],[13.312064405840783,52.399105377194935],[13.313811280130665,52.4004518227889],[13.3189987492489,52.40259394558811],[13.34334723470666,52.41172168595051],[13.342742069093893,52.414166601216266],[13.363204206952586,52.42141132754727],[13.364162260710076,52.42230843709403],[13.367918362366126,52.427611316432305],[13.371595407385048,52.42911648651244],[13.366133346413216,52.43848009408574],[13.362384054543506,52.44457290749343],[13.356119394130852,52.455611856268206],[13.354200366942093,52.455641781941836],[13.35247619876802,52.457075752882936],[13.349078385785292,52.45677476967081],[13.349043645050198,52.458764867798685],[13.344955957066993,52.461718646771125],[13.336274294227318,52.467416542460036],[13.33466605661297,52.466277387249136],[13.32936501708252,52.46557293226198],[13.327869993977504,52.464501286721216],[13.320992758185517,52.466963125172654],[13.319982932785106,52.46698046080064],[13.311424490376176,52.46712466313976],[13.307476733846444,52.46788044824756],[13.306366702087045,52.46749039551068],[13.298008002552233,52.468847089007134],[13.289082861051687,52.470528604394296],[13.282916974988591,52.46919538448798],[13.263547821459207,52.46695168120106],[13.261625507815017,52.46777280453089],[13.259092985839024,52.46649910326689],[13.252631040231472,52.466746921429745],[13.235101503579461,52.46966105724059],[13.231469654701986,52.47075625615343],[13.223776456935962,52.46998592706865],[13.216539596863507,52.47012275043746],[13.211475021339396,52.46943902727715],[13.205097359116513,52.470522613748315],[13.201561318357161,52.46986703041993],[13.20063894543015,52.469044648534975],[13.198090738671908,52.469012783246754],[13.196622271095565,52.4713406489104],[13.19455960290631,52.470977873082724],[13.188170030940386,52.47183688722015]]]},"properties":{"gml_id":"s_wfs_alkis_bezirk.F176__9","Gemeinde_name":"Steglitz-Zehlendorf","Gemeinde_schluessel":"006","Land_name":"Berlin","Land_schluessel":"11","Schluessel_gesamt":"11000006"}},
{"type":"Feature","geometry":{"type":"Polygon","coordinates":[[[13.301530461543415,52.5488063524014],[13.317935772613176,52.548237672943216],[13.3262333017687,52.541874207263],[13.327326130645966,52.54143052563856],[13.327191192314997,52.53964618187031],[13.328353299201387,52.53802004014765],[13.311412898398912,52.53561428745689],[13.313031890236617,52.53187840127839],[13.317033222475741,52.53235155600454],[13.316747512327149,52.53090461070472],[13.31335419450725,52.53026077526924],[13.316648801162524,52.52096317571861],[13.3187786360122,52.52111494453002],[13.318942465543165,52.5230746208265],[13.320010789895614,52.52406501003183],[13.32325227028461,52.52468732782123],[13.326920178386814,52.52371731968641],[13.329532732067474,52.52117847263263],[13.329094588929733,52.51910633568544],[13.329787305206219,52.51781311776585],[13.332283581462576,52.51670448230011],[13.33421538537805,52.516771992742456],[13.336136198279435,52.51437704585151],[13.33585375941424,52.513293389260916],[13.331875224090645,52.51303083809441],[13.333736072181718,52.51171740322307],[13.330043302964043,52.510075433181065],[13.33487206115307,52.50846042529929],[13.333749856908481,52.50672136199614],[13.335564713514701,52.50583188588379],[13.338637730121974,52.505919988740196],[13.341421041682787,52.50486765727417],[13.357519042162112,52.501104854064714],[13.362537544291675,52.49966269513629],[13.369528193921726,52.49886975284744],[13.370835371875224,52.49988494048626],[13.371436433351631,52.501644885747055],[13.373606237393464,52.50416332423684],[13.37497725748246,52.50337775476718],[13.377649151930022,52.50796749734292],[13.378938130449047,52.50693044462582],[13.3987719679769,52.508113512384924],[13.400189671403048,52.50937587857957],[13.404434237351204,52.507774708652796],[13.405284802765404,52.50821062687838],[13.408029436066926,52.50618017960035],[13.409970810221068,52.50692568863782],[13.411520953977943,52.504891267558925],[13.414072830853002,52.504037929609034],[13.414909208098097,52.50491633602074],[13.417601447576041,52.50417012413092],[13.419430913360454,52.505649108650694],[13.423624698339172,52.50500030370394],[13.427200304204371,52.50566606107522],[13.429402280699215,52.508572215810524],[13.422780582410002,52.51223442746427],[13.425096133812303,52.51506992094366],[13.429181450745954,52.52122403426787],[13.425547875286602,52.522790948040644],[13.425433864539391,52.523440768689746],[13.419753208818554,52.52554559739683],[13.415431658813207,52.527463060497084],[13.411313721791247,52.52862115483801],[13.40558573781651,52.52966497959654],[13.407486162784648,52.53468979585039],[13.404704551635373,52.54018771114882],[13.402030936160005,52.540124543875045],[13.400245561519036,52.54337638143195],[13.399206481877348,52.546530413294484],[13.400303697326638,52.54664552481055],[13.398067362534048,52.55280594393734],[13.39709761751374,52.55826790790385],[13.395905160332646,52.56182160220538],[13.393390264524138,52.5644045118048],[13.388400559754315,52.56766859728708],[13.384297765900941,52.567713444472005],[13.381159985472904,52.56642246213004],[13.378585028302599,52.566192970987835],[13.37714765631473,52.560661717230786],[13.370831230223214,52.56054113863152],[13.366657266179176,52.558227611553],[13.365103996263853,52.55811780458374],[13.364524295028266,52.56117595288045],[13.360097589104987,52.56047160700523],[13.359714673637889,52.56185484463376],[13.349088933719656,52.56192863444508],[13.337101881651227,52.56445636776952],[13.331792139708408,52.56165918596783],[13.330922933458606,52.562151279582515],[13.326794780325432,52.56238208249499],[13.323904453165781,52.56056934391362],[13.316939541761018,52.55955877577226],[13.309670201565396,52.55772201990658],[13.301530461543415,52.5488063524014]]]},"properties":{"gml_id":"s_wfs_alkis_bezirk.F176__10","Gemeinde_name":"Mitte","Gemeinde_schluessel":"001","Land_name":"Berlin","Land_schluessel":"11","Schluessel_gesamt":"11000001"}},
{"type":"Feature","geometry":{"type":"Polygon","coordinates":[[[13.490709081950314,52.48744368857378],[13.49145351470173,52.48826564808013],[13.488462082405402,52.489888247601996],[13.484145436082873,52.49165805584269],[13.473080453285553,52.4989906598575],[13.468572694060816,52.499651704717],[13.470206937595972,52.5037427572771],[13.471749101665628,52.50573557586633],[13.47626648363358,52.51044080209329],[13.475437732670649,52.51343320959859],[13.47671358777874,52.51504566848401],[13.474196624642655,52.51911651213366],[13.47210726619803,52.52069431861965],[13.462695067516114,52.51992757256359],[13.45529014391105,52.52127227267394],[13.455799803194584,52.522552293566],[13.452182818460436,52.52779576788639],[13.447168281855445,52.526408396824635],[13.442277413439106,52.531025593025575],[13.438748232659188,52.528777835477904],[13.437481555232216,52.52954802023927],[13.423642107832306,52.5279149667068],[13.419753208818554,52.52554559739683],[13.425433864539391,52.523440768689746],[13.425547875286602,52.522790948040644],[13.429181450745954,52.52122403426787],[13.425096133812303,52.51506992094366],[13.422780582410002,52.51223442746427],[13.429402280699215,52.508572215810524],[13.427200304204371,52.50566606107522],[13.423624698339172,52.50500030370394],[13.419430913360454,52.505649108650694],[13.417601447576041,52.50417012413092],[13.414909208098097,52.50491633602074],[13.414072830853002,52.504037929609034],[13.411520953977943,52.504891267558925],[13.409970810221068,52.50692568863782],[13.408029436066926,52.50618017960035],[13.405284802765404,52.50821062687838],[13.404434237351204,52.507774708652796],[13.400189671403048,52.50937587857957],[13.3987719679769,52.508113512384924],[13.378938130449047,52.50693044462582],[13.377649151930022,52.50796749734292],[13.37497725748246,52.50337775476718],[13.373606237393464,52.50416332423684],[13.371436433351631,52.501644885747055],[13.370835371875224,52.49988494048626],[13.369528193921726,52.49886975284744],[13.368678416000112,52.49738540704456],[13.368215305236783,52.49333092108655],[13.376434118120615,52.49167598692637],[13.373536148385197,52.487981908515756],[13.374020982529645,52.485169687630744],[13.386268522660172,52.4848636074861],[13.38629095211158,52.48582647726411],[13.394253455314017,52.485771490565384],[13.394240009299706,52.48410472206999],[13.400228846554716,52.48390532689621],[13.406395248988474,52.48277046362933],[13.406748392972082,52.48512623478809],[13.408529432279972,52.48714199204255],[13.407885995593105,52.48886083081797],[13.420842987388836,52.48716818967181],[13.423681544864067,52.48635828788528],[13.425411005115498,52.48808522208677],[13.420789032243546,52.49547582654317],[13.422750587317752,52.49536715555374],[13.439657172942823,52.48990870998564],[13.440816288217269,52.49120256741554],[13.444976230601464,52.49442274988909],[13.447849502019748,52.49482150015324],[13.450907942016741,52.497108018464225],[13.455070613879842,52.497421114110196],[13.459511913213802,52.49653592251411],[13.463933836848033,52.49510720105357],[13.463199658729648,52.49421548383725],[13.471018876164464,52.49148723276804],[13.473787271133551,52.4910336618486],[13.477685594891705,52.48878308701664],[13.478074416375302,52.48772392085046],[13.482055731356041,52.48744347674734],[13.482955978077154,52.486046320231374],[13.485946126212541,52.487402586697605],[13.488503832909963,52.48783601524655],[13.490709081950314,52.48744368857378]]]},"properties":{"gml_id":"s_wfs_alkis_bezirk.F176__11","Gemeinde_name":"Friedrichshain-Kreuzberg","Gemeinde_schluessel":"002","Land_name":"Berlin","Land_schluessel":"11","Schluessel_gesamt":"11000002"}},
{"type":"Feature","geometry":{"type":"Polygon","coordinates":[[[13.319982932785106,52.46698046080064],[13.320992758185517,52.466963125172654],[13.327869993977504,52.464501286721216],[13.32936501708252,52.46557293226198],[13.33466605661297,52.466277387249136],[13.336274294227318,52.467416542460036],[13.344955957066993,52.461718646771125],[13.349043645050198,52.458764867798685],[13.349078385785292,52.45677476967081],[13.35247619876802,52.457075752882936],[13.354200366942093,52.455641781941836],[13.356119394130852,52.455611856268206],[13.362384054543506,52.44457290749343],[13.366133346413216,52.43848009408574],[13.371595407385048,52.42911648651244],[13.367918362366126,52.427611316432305],[13.364162260710076,52.42230843709403],[13.363204206952586,52.42141132754727],[13.342742069093893,52.414166601216266],[13.34334723470666,52.41172168595051],[13.343057743604486,52.40768641069277],[13.35083175832423,52.40290300641475],[13.359366114803839,52.39847028827381],[13.37195088365967,52.3937974516277],[13.370355229544396,52.38842721090529],[13.378701679643942,52.38815745009856],[13.387300172237564,52.388574361794895],[13.388225005762392,52.382130678245495],[13.388432000339677,52.37786212188075],[13.39711866021139,52.37758350910549],[13.412642700260644,52.37641027377137],[13.420813037732048,52.37613990578372],[13.427456694244569,52.385781617230094],[13.425830820176131,52.390583126610245],[13.418418569694335,52.407078084343176],[13.418747601886976,52.40997903019489],[13.419583542146638,52.41018404183319],[13.4114862608022,52.41313896348777],[13.4084696713451,52.4134401441873],[13.40250484212593,52.41271050275601],[13.399497171455314,52.41801930546172],[13.400121491825516,52.41877349649124],[13.404815220405387,52.42000306672532],[13.405468149342852,52.4217637841377],[13.402601245985489,52.422160902895754],[13.406094965197855,52.42711463534853],[13.406866850104239,52.43013928184788],[13.410379599516228,52.43614444307643],[13.410568183210339,52.4374529734217],[13.413985173579974,52.44594544449279],[13.414767480808772,52.44701122673481],[13.416836851337383,52.452239476259315],[13.417682665071558,52.452201705100784],[13.42119658222265,52.456752224154165],[13.426569666696135,52.45669987344581],[13.424371506999396,52.457997580841116],[13.420607843834517,52.459368101508],[13.42197195111338,52.46151620165862],[13.421542123073218,52.46583855921733],[13.416879620678971,52.465396419364595],[13.415780402142472,52.470310311517686],[13.413488212027671,52.47870849042936],[13.410884821869065,52.477723694784025],[13.406622925219452,52.47823356485415],[13.406063269031023,52.480985920501595],[13.406395248988474,52.48277046362933],[13.400228846554716,52.48390532689621],[13.394240009299706,52.48410472206999],[13.394253455314017,52.485771490565384],[13.38629095211158,52.48582647726411],[13.386268522660172,52.4848636074861],[13.374020982529645,52.485169687630744],[13.373536148385197,52.487981908515756],[13.376434118120615,52.49167598692637],[13.368215305236783,52.49333092108655],[13.368678416000112,52.49738540704456],[13.369528193921726,52.49886975284744],[13.362537544291675,52.49966269513629],[13.357519042162112,52.501104854064714],[13.341421041682787,52.50486765727417],[13.33697830497782,52.50069092504759],[13.338990200593738,52.499417366912866],[13.337306861756712,52.495985544569905],[13.336897162947293,52.48969131814874],[13.337134023079715,52.487904332057035],[13.337067724452417,52.47813243592526],[13.332868147312267,52.47741482058998],[13.32042839699573,52.477471018952855],[13.319982932785106,52.46698046080064]]]},"properties":{"gml_id":"s_wfs_alkis_bezirk.F176__12","Gemeinde_name":"Tempelhof-Schöneberg","Gemeinde_schluessel":"007","Land_name":"Berlin","Land_schluessel":"11","Schluessel_gesamt":"11000007"}}
]}